STARLINK-36124          
1 67121U 25299V   26012.91668981  .00009079  00000+0  22434-3 0  9995
2 67121  42.9998 129.9525 0001538 269.8801 223.3379 15.40701770  5819
STARLINK-36188          
1 67122U 25299W   26012.70270187  .00042638  00000+0  10220-2 0  9997
2 67122  42.9997 131.2460 0001647 265.8261  94.2408 15.40708069  4488
STARLINK-36151          
1 67123U 25299X   26012.71838876  .00055655  00000+0  13283-2 0  9999
2 67123  42.9966 131.3700 0000586 341.8259  18.2577 15.40735905  4488
STARLINK-36195          
1 67124U 25299Y   26012.70718131  .00053404  00000+0  12766-2 0  9995
2 67124  42.9987 131.2796 0002119 246.8901 113.1733 15.40702600  4483
STARLINK-36219          
1 67125U 25299Z   26012.91668981  .00011720  00000+0  28721-3 0  9990
2 67125  42.9996 129.8916 0001758 284.8858 233.1631 15.40720198  5812
STARLINK-36223          
1 67126U 25299AA  26012.91668981  .00006387  00000+0  16000-3 0  9991
2 67126  42.9995 129.8315 0001460 266.7192 276.2569 15.40705447  5813
STARLINK-36164          
1 67127U 25299AB  26012.91668981  .00007075  00000+0  17643-3 0  9991
2 67127  42.9993 129.7407 0001136 299.3753 280.9212 15.40707574  5818
STARLINK-35685          
1 67128U 25299AC  26012.32491861  .00055546  00000+0  13256-2 0  9999
2 67128  42.9965 133.5723 0001116 288.4115  71.6620 15.40738067  4426
STARLINK-36214          
1 67129U 25299AD  26012.91668981  .00005101  00000+0  12932-3 0  9997
2 67129  42.9995 129.6798 0001647 278.3676 326.8407 15.40697330  5816
STARLINK-36194          
1 67130U 25299AE  26012.91668981  .00007914  00000+0  19656-3 0  9993
2 67130  42.9996 129.8625 0001359 290.3092 240.2314 15.40693039  5825
ZIYUAN 3-04 (ZY 3-04)   
1 67131U 25300A   26009.18248613  .00001730  00000+0  80130-4 0  9994
2 67131  97.4889  88.1516 0003945 118.6144 241.5489 15.21458354  3666
CZ-4B R/B               
1 67132U 25300B   26012.95536768  .00114204  61508-5  45070-3 0  9995
2 67132  97.5509  94.1684 0152381 273.8947  84.4906 15.71110664  4364
