CCSDS_OMM_VERS = 2.0
CREATION_DATE  = 
ORIGINATOR     = 

OBJECT_NAME    = STARLINK-36124
OBJECT_ID      = 2025-299V
CENTER_NAME    = EARTH
REF_FRAME      = TEME
TIME_SYSTEM    = UTC
MEAN_ELEMENT_THEORY = SGP/SGP4

EPOCH          = 2026-01-12T22:00:01.999584
MEAN_MOTION    = 15.40701770
ECCENTRICITY   = .00015388
INCLINATION    = 42.9998
RA_OF_ASC_NODE = 129.9525
ARG_OF_PERICENTER = 269.8801
MEAN_ANOMALY   = 223.3379

EPHEMERIS_TYPE = 0
CLASSIFICATION_TYPE = U
NORAD_CAT_ID   = 67121
ELEMENT_SET_NO = 999
REV_AT_EPOCH   = 581
BSTAR          = .22434043E-3
MEAN_MOTION_DOT = .9079E-4
MEAN_MOTION_DDOT = 0

CCSDS_OMM_VERS = 2.0
CREATION_DATE  = 
ORIGINATOR     = 

OBJECT_NAME    = STARLINK-36188
OBJECT_ID      = 2025-299W
CENTER_NAME    = EARTH
REF_FRAME      = TEME
TIME_SYSTEM    = UTC
MEAN_ELEMENT_THEORY = SGP/SGP4

EPOCH          = 2026-01-12T16:51:53.441568
MEAN_MOTION    = 15.40708069
ECCENTRICITY   = .00016478
INCLINATION    = 42.9997
RA_OF_ASC_NODE = 131.2460
ARG_OF_PERICENTER = 265.8261
MEAN_ANOMALY   = 94.2408

EPHEMERIS_TYPE = 0
CLASSIFICATION_TYPE = U
NORAD_CAT_ID   = 67122
ELEMENT_SET_NO = 999
REV_AT_EPOCH   = 448
BSTAR          = .10219835E-2
MEAN_MOTION_DOT = .42638E-3
MEAN_MOTION_DDOT = 0

CCSDS_OMM_VERS = 2.0
CREATION_DATE  = 
ORIGINATOR     = 

OBJECT_NAME    = STARLINK-36151
OBJECT_ID      = 2025-299X
CENTER_NAME    = EARTH
REF_FRAME      = TEME
TIME_SYSTEM    = UTC
MEAN_ELEMENT_THEORY = SGP/SGP4

EPOCH          = 2026-01-12T17:14:28.788864
MEAN_MOTION    = 15.40735905
ECCENTRICITY   = .00005863
INCLINATION    = 42.9966
RA_OF_ASC_NODE = 131.3700
ARG_OF_PERICENTER = 341.8259
MEAN_ANOMALY   = 18.2577

EPHEMERIS_TYPE = 0
CLASSIFICATION_TYPE = U
NORAD_CAT_ID   = 67123
ELEMENT_SET_NO = 999
REV_AT_EPOCH   = 448
BSTAR          = .13282955E-2
MEAN_MOTION_DOT = .55655E-3
MEAN_MOTION_DDOT = 0

CCSDS_OMM_VERS = 2.0
CREATION_DATE  = 
ORIGINATOR     = 

OBJECT_NAME    = STARLINK-36195
OBJECT_ID      = 2025-299Y
CENTER_NAME    = EARTH
REF_FRAME      = TEME
TIME_SYSTEM    = UTC
MEAN_ELEMENT_THEORY = SGP/SGP4

EPOCH          = 2026-01-12T16:58:20.465184
MEAN_MOTION    = 15.40702600
ECCENTRICITY   = .00021195
INCLINATION    = 42.9987
RA_OF_ASC_NODE = 131.2796
ARG_OF_PERICENTER = 246.8901
MEAN_ANOMALY   = 113.1733

EPHEMERIS_TYPE = 0
CLASSIFICATION_TYPE = U
NORAD_CAT_ID   = 67124
ELEMENT_SET_NO = 999
REV_AT_EPOCH   = 448
BSTAR          = .12766072E-2
MEAN_MOTION_DOT = .53404E-3
MEAN_MOTION_DDOT = 0

CCSDS_OMM_VERS = 2.0
CREATION_DATE  = 
ORIGINATOR     = 

OBJECT_NAME    = STARLINK-36219
OBJECT_ID      = 2025-299Z
CENTER_NAME    = EARTH
REF_FRAME      = TEME
TIME_SYSTEM    = UTC
MEAN_ELEMENT_THEORY = SGP/SGP4

EPOCH          = 2026-01-12T22:00:01.999584
MEAN_MOTION    = 15.40720198
ECCENTRICITY   = .00017581
INCLINATION    = 42.9996
RA_OF_ASC_NODE = 129.8916
ARG_OF_PERICENTER = 284.8858
MEAN_ANOMALY   = 233.1631

EPHEMERIS_TYPE = 0
CLASSIFICATION_TYPE = U
NORAD_CAT_ID   = 67125
ELEMENT_SET_NO = 999
REV_AT_EPOCH   = 581
BSTAR          = .28721058E-3
MEAN_MOTION_DOT = .1172E-3
MEAN_MOTION_DDOT = 0

CCSDS_OMM_VERS = 2.0
CREATION_DATE  = 
ORIGINATOR     = 

OBJECT_NAME    = STARLINK-36223
OBJECT_ID      = 2025-299AA
CENTER_NAME    = EARTH
REF_FRAME      = TEME
TIME_SYSTEM    = UTC
MEAN_ELEMENT_THEORY = SGP/SGP4

EPOCH          = 2026-01-12T22:00:01.999584
MEAN_MOTION    = 15.40705447
ECCENTRICITY   = .00014609
INCLINATION    = 42.9995
RA_OF_ASC_NODE = 129.8315
ARG_OF_PERICENTER = 266.7192
MEAN_ANOMALY   = 276.2569

EPHEMERIS_TYPE = 0
CLASSIFICATION_TYPE = U
NORAD_CAT_ID   = 67126
ELEMENT_SET_NO = 999
REV_AT_EPOCH   = 581
BSTAR          = .16000285E-3
MEAN_MOTION_DOT = .6387E-4
MEAN_MOTION_DDOT = 0

CCSDS_OMM_VERS = 2.0
CREATION_DATE  = 
ORIGINATOR     = 

OBJECT_NAME    = STARLINK-36164
OBJECT_ID      = 2025-299AB
CENTER_NAME    = EARTH
REF_FRAME      = TEME
TIME_SYSTEM    = UTC
MEAN_ELEMENT_THEORY = SGP/SGP4

EPOCH          = 2026-01-12T22:00:01.999584
MEAN_MOTION    = 15.40707574
ECCENTRICITY   = .00011362
INCLINATION    = 42.9993
RA_OF_ASC_NODE = 129.7407
ARG_OF_PERICENTER = 299.3753
MEAN_ANOMALY   = 280.9212

EPHEMERIS_TYPE = 0
CLASSIFICATION_TYPE = U
NORAD_CAT_ID   = 67127
ELEMENT_SET_NO = 999
REV_AT_EPOCH   = 581
BSTAR          = .17643344E-3
MEAN_MOTION_DOT = .7075E-4
MEAN_MOTION_DDOT = 0

CCSDS_OMM_VERS = 2.0
CREATION_DATE  = 
ORIGINATOR     = 

OBJECT_NAME    = STARLINK-35685
OBJECT_ID      = 2025-299AC
CENTER_NAME    = EARTH
REF_FRAME      = TEME
TIME_SYSTEM    = UTC
MEAN_ELEMENT_THEORY = SGP/SGP4

EPOCH          = 2026-01-12T07:47:52.967904
MEAN_MOTION    = 15.40738067
ECCENTRICITY   = .00011163
INCLINATION    = 42.9965
RA_OF_ASC_NODE = 133.5723
ARG_OF_PERICENTER = 288.4115
MEAN_ANOMALY   = 71.6620

EPHEMERIS_TYPE = 0
CLASSIFICATION_TYPE = U
NORAD_CAT_ID   = 67128
ELEMENT_SET_NO = 999
REV_AT_EPOCH   = 442
BSTAR          = .13256495E-2
MEAN_MOTION_DOT = .55546E-3
MEAN_MOTION_DDOT = 0

CCSDS_OMM_VERS = 2.0
CREATION_DATE  = 
ORIGINATOR     = 

OBJECT_NAME    = STARLINK-36214
OBJECT_ID      = 2025-299AD
CENTER_NAME    = EARTH
REF_FRAME      = TEME
TIME_SYSTEM    = UTC
MEAN_ELEMENT_THEORY = SGP/SGP4

EPOCH          = 2026-01-12T22:00:01.999584
MEAN_MOTION    = 15.40697330
ECCENTRICITY   = .00016479
INCLINATION    = 42.9995
RA_OF_ASC_NODE = 129.6798
ARG_OF_PERICENTER = 278.3676
MEAN_ANOMALY   = 326.8407

EPHEMERIS_TYPE = 0
CLASSIFICATION_TYPE = U
NORAD_CAT_ID   = 67129
ELEMENT_SET_NO = 999
REV_AT_EPOCH   = 581
BSTAR          = .12931556E-3
MEAN_MOTION_DOT = .5101E-4
MEAN_MOTION_DDOT = 0

CCSDS_OMM_VERS = 2.0
CREATION_DATE  = 
ORIGINATOR     = 

OBJECT_NAME    = STARLINK-36194
OBJECT_ID      = 2025-299AE
CENTER_NAME    = EARTH
REF_FRAME      = TEME
TIME_SYSTEM    = UTC
MEAN_ELEMENT_THEORY = SGP/SGP4

EPOCH          = 2026-01-12T22:00:01.999584
MEAN_MOTION    = 15.40693039
ECCENTRICITY   = .00013592
INCLINATION    = 42.9996
RA_OF_ASC_NODE = 129.8625
ARG_OF_PERICENTER = 290.3092
MEAN_ANOMALY   = 240.2314

EPHEMERIS_TYPE = 0
CLASSIFICATION_TYPE = U
NORAD_CAT_ID   = 67130
ELEMENT_SET_NO = 999
REV_AT_EPOCH   = 582
BSTAR          = .19655562E-3
MEAN_MOTION_DOT = .7914E-4
MEAN_MOTION_DDOT = 0

CCSDS_OMM_VERS = 2.0
CREATION_DATE  = 
ORIGINATOR     = 

OBJECT_NAME    = ZIYUAN 3-04 (ZY 3-04)
OBJECT_ID      = 2025-300A
CENTER_NAME    = EARTH
REF_FRAME      = TEME
TIME_SYSTEM    = UTC
MEAN_ELEMENT_THEORY = SGP/SGP4

EPOCH          = 2026-01-09T04:22:46.801632
MEAN_MOTION    = 15.21458354
ECCENTRICITY   = .00039457
INCLINATION    = 97.4889
RA_OF_ASC_NODE = 88.1516
ARG_OF_PERICENTER = 118.6144
MEAN_ANOMALY   = 241.5489

EPHEMERIS_TYPE = 0
CLASSIFICATION_TYPE = U
NORAD_CAT_ID   = 67131
ELEMENT_SET_NO = 999
REV_AT_EPOCH   = 366
BSTAR          = .80129707E-4
MEAN_MOTION_DOT = .173E-4
MEAN_MOTION_DDOT = 0

CCSDS_OMM_VERS = 2.0
CREATION_DATE  = 
ORIGINATOR     = 

OBJECT_NAME    = CZ-4B R/B
OBJECT_ID      = 2025-300B
CENTER_NAME    = EARTH
REF_FRAME      = TEME
TIME_SYSTEM    = UTC
MEAN_ELEMENT_THEORY = SGP/SGP4

EPOCH          = 2026-01-12T22:55:43.767552
MEAN_MOTION    = 15.71110664
ECCENTRICITY   = .01523812
INCLINATION    = 97.5509
RA_OF_ASC_NODE = 94.1684
ARG_OF_PERICENTER = 273.8947
MEAN_ANOMALY   = 84.4906

EPHEMERIS_TYPE = 0
CLASSIFICATION_TYPE = U
NORAD_CAT_ID   = 67132
ELEMENT_SET_NO = 999
REV_AT_EPOCH   = 436
BSTAR          = .45070087E-3
MEAN_MOTION_DOT = .114204E-2
MEAN_MOTION_DDOT = .6150805E-5

